start=new Date('2022-07-31T00:00:00.000Z').valueOf();
sats=[{"REF_FRAME":"TEME","INCLINATION":"53.2202","MEAN_ANOMALY":"264.1113","SITE":"AFETR","RCS_SIZE":"LARGE","DECAY_DATE":null,"ECCENTRICITY":"0.00018550","TLE_LINE1":"1 52609U 22052M   22211.91667824 -.00007016  00000-0 -42322-3 0  9996","OBJECT_ID":"2022-052M","BSTAR":"-0.00042322000000","EPOCH":"2022-07-30T22:00:00.999936","NORAD_CAT_ID":"52609","SEMIMAJOR_AXIS":"6917.903","OBJECT_TYPE":"PAYLOAD","OBJECT_NAME":"STARLINK-3997","EPHEMERIS_TYPE":"0","TLE_LINE2":"2 52609  53.2202  74.8243 0001855  52.9056 264.1113 15.08832656  1308","COUNTRY_CODE":"US","MEAN_MOTION_DDOT":"0.0000000000000","CENTER_NAME":"EARTH","APOAPSIS":"541.051","RA_OF_ASC_NODE":"74.8243","ELEMENT_SET_NO":"999","CLASSIFICATION_TYPE":"U","LAUNCH_DATE":"2022-05-14","TIME_SYSTEM":"UTC","PERIAPSIS":"538.485","ARG_OF_PERICENTER":"52.9056","PERIOD":"95.438","MEAN_MOTION_DOT":"-0.00007016","MEAN_ELEMENT_THEORY":"SGP4","FILE":"3525638","GP_ID":"209229898","MEAN_MOTION":"15.08832656","REV_AT_EPOCH":"130"},{"REV_AT_EPOCH":"130","GP_ID":"209230026","FILE":"3525638","MEAN_MOTION":"15.08841023","PERIOD":"95.437","MEAN_MOTION_DOT":"-0.00014128","MEAN_ELEMENT_THEORY":"SGP4","ARG_OF_PERICENTER":"61.2376","PERIAPSIS":"538.337","TIME_SYSTEM":"UTC","LAUNCH_DATE":"2022-05-14","CLASSIFICATION_TYPE":"U","ELEMENT_SET_NO":"999","RA_OF_ASC_NODE":"79.8328","APOAPSIS":"541.148","CENTER_NAME":"EARTH","COUNTRY_CODE":"US","MEAN_MOTION_DDOT":"0.0000000000000","TLE_LINE2":"2 52610  53.2142  79.8328 0002032  61.2376 353.4607 15.08841023  1306","EPHEMERIS_TYPE":"0","OBJECT_NAME":"STARLINK-3998","OBJECT_TYPE":"PAYLOAD","SEMIMAJOR_AXIS":"6917.877","NORAD_CAT_ID":"52610","EPOCH":"2022-07-30T22:00:00.999936","BSTAR":"-0.00087126000000","OBJECT_ID":"2022-052N","TLE_LINE1":"1 52610U 22052N   22211.91667824 -.00014128  00000-0 -87126-3 0  9991","DECAY_DATE":null,"ECCENTRICITY":"0.00020320","SITE":"AFETR","RCS_SIZE":"LARGE","MEAN_ANOMALY":"353.4607","INCLINATION":"53.2142","REF_FRAME":"TEME"},{"REF_FRAME":"TEME","SITE":"AFETR","RCS_SIZE":"LARGE","MEAN_ANOMALY":"38.0485","INCLINATION":"53.2140","NORAD_CAT_ID":"52611","SEMIMAJOR_AXIS":"6917.899","OBJECT_ID":"2022-052P","BSTAR":"-0.00085018000000","EPOCH":"2022-07-30T22:00:00.999936","TLE_LINE1":"1 52611U 22052P   22211.91667824 -.00013791  00000-0 -85018-3 0  9995","ECCENTRICITY":"0.00019290","DECAY_DATE":null,"TLE_LINE2":"2 52611  53.2140  79.8314 0001929  56.6525  38.0485 15.08833978  1308","OBJECT_NAME":"STARLINK-3980","EPHEMERIS_TYPE":"0","OBJECT_TYPE":"PAYLOAD","CENTER_NAME":"EARTH","COUNTRY_CODE":"US","MEAN_MOTION_DDOT":"0.0000000000000","LAUNCH_DATE":"2022-05-14","CLASSIFICATION_TYPE":"U","ELEMENT_SET_NO":"999","APOAPSIS":"541.098","RA_OF_ASC_NODE":"79.8314","FILE":"3525638","GP_ID":"209230538","MEAN_MOTION":"15.08833978","REV_AT_EPOCH":"130","MEAN_MOTION_DOT":"-0.00013791","PERIOD":"95.438","MEAN_ELEMENT_THEORY":"SGP4","PERIAPSIS":"538.429","ARG_OF_PERICENTER":"56.6525","TIME_SYSTEM":"UTC"},{"REF_FRAME":"TEME","RCS_SIZE":"LARGE","SITE":"AFETR","MEAN_ANOMALY":"282.6386","INCLINATION":"53.2183","NORAD_CAT_ID":"52612","SEMIMAJOR_AXIS":"6920.380","OBJECT_ID":"2022-052Q","BSTAR":"-0.00054999000000","EPOCH":"2022-07-30T22:00:00.999936","TLE_LINE1":"1 52612U 22052Q   22211.91667824 -.00008836  00000-0 -54999-3 0  9994","DECAY_DATE":null,"ECCENTRICITY":"0.00020130","TLE_LINE2":"2 52612  53.2183  74.7443 0002013  59.1265 282.6386 15.08022755  1307","OBJECT_NAME":"STARLINK-4002","EPHEMERIS_TYPE":"0","OBJECT_TYPE":"PAYLOAD","CENTER_NAME":"EARTH","COUNTRY_CODE":"US","MEAN_MOTION_DDOT":"0.0000000000000","LAUNCH_DATE":"2022-05-14","CLASSIFICATION_TYPE":"U","ELEMENT_SET_NO":"999","APOAPSIS":"543.638","RA_OF_ASC_NODE":"74.7443","GP_ID":"209229770","FILE":"3525638","REV_AT_EPOCH":"130","MEAN_MOTION":"15.08022755","MEAN_ELEMENT_THEORY":"SGP4","PERIOD":"95.489","MEAN_MOTION_DOT":"-0.00008836","PERIAPSIS":"540.851","ARG_OF_PERICENTER":"59.1265","TIME_SYSTEM":"UTC"},{"PERIOD":"95.436","MEAN_MOTION_DOT":"-0.00000863","MEAN_ELEMENT_THEORY":"SGP4","GP_ID":"209230282","FILE":"3525638","REV_AT_EPOCH":"130","MEAN_MOTION":"15.08861759","TIME_SYSTEM":"UTC","ARG_OF_PERICENTER":"90.7249","PERIAPSIS":"538.753","ELEMENT_SET_NO":"999","CLASSIFICATION_TYPE":"U","LAUNCH_DATE":"2022-05-14","RA_OF_ASC_NODE":"64.8378","APOAPSIS":"540.604","CENTER_NAME":"EARTH","COUNTRY_CODE":"US","MEAN_MOTION_DDOT":"0.0000000000000","TLE_LINE2":"2 52613  53.2140  64.8378 0001338  90.7249 306.3614 15.08861759  1303","OBJECT_TYPE":"PAYLOAD","EPHEMERIS_TYPE":"0","OBJECT_NAME":"STARLINK-3921","BSTAR":"-0.00003611800000","EPOCH":"2022-07-30T22:00:00.999936","OBJECT_ID":"2022-052R","SEMIMAJOR_AXIS":"6917.814","NORAD_CAT_ID":"52613","DECAY_DATE":null,"ECCENTRICITY":"0.00013380","TLE_LINE1":"1 52613U 22052R   22211.91667824 -.00000863  00000-0 -36118-4 0  9991","RCS_SIZE":"LARGE","SITE":"AFETR","INCLINATION":"53.2140","MEAN_ANOMALY":"306.3614","REF_FRAME":"TEME"},{"ARG_OF_PERICENTER":"70.2292","PERIAPSIS":"538.723","TIME_SYSTEM":"UTC","GP_ID":"209229642","MEAN_MOTION":"15.08837326","FILE":"3525638","REV_AT_EPOCH":"130","PERIOD":"95.438","MEAN_ELEMENT_THEORY":"SGP4","MEAN_MOTION_DOT":"-0.00068443","RA_OF_ASC_NODE":"64.8413","APOAPSIS":"540.784","LAUNCH_DATE":"2022-05-14","CLASSIFICATION_TYPE":"U","ELEMENT_SET_NO":"999","MEAN_MOTION_DDOT":"0.0000000000000","COUNTRY_CODE":"US","CENTER_NAME":"EARTH","EPHEMERIS_TYPE":"0","OBJECT_NAME":"STARLINK-3982","OBJECT_TYPE":"PAYLOAD","TLE_LINE2":"2 52614  53.2122  64.8413 0001490  70.2292 307.0061 15.08837326  1301","TLE_LINE1":"1 52614U 22052S   22211.91667824 -.00068443  00000-0 -43238-2 0  9999","ECCENTRICITY":"0.00014900","DECAY_DATE":null,"SEMIMAJOR_AXIS":"6917.889","NORAD_CAT_ID":"52614","BSTAR":"-0.00432380000000","EPOCH":"2022-07-30T22:00:00.999936","OBJECT_ID":"2022-052S","MEAN_ANOMALY":"307.0061","INCLINATION":"53.2122","RCS_SIZE":"LARGE","SITE":"AFETR","REF_FRAME":"TEME"},{"TLE_LINE1":"1 52615U 22052T   22211.91667824 -.00028565  00000-0 -17829-2 0  9998","DECAY_DATE":null,"ECCENTRICITY":"0.00019400","NORAD_CAT_ID":"52615","SEMIMAJOR_AXIS":"6917.826","OBJECT_ID":"2022-052T","BSTAR":"-0.00178290000000","EPOCH":"2022-07-30T22:00:00.999936","REF_FRAME":"TEME","MEAN_ANOMALY":"45.6654","INCLINATION":"53.2135","SITE":"AFETR","RCS_SIZE":"LARGE","APOAPSIS":"541.033","RA_OF_ASC_NODE":"79.8300","LAUNCH_DATE":"2022-05-14","CLASSIFICATION_TYPE":"U","ELEMENT_SET_NO":"999","PERIAPSIS":"538.349","ARG_OF_PERICENTER":"69.0695","TIME_SYSTEM":"UTC","GP_ID":"209230410","MEAN_MOTION":"15.08857875","FILE":"3525638","REV_AT_EPOCH":"130","MEAN_MOTION_DOT":"-0.00028565","PERIOD":"95.436","MEAN_ELEMENT_THEORY":"SGP4","OBJECT_NAME":"STARLINK-4011","EPHEMERIS_TYPE":"0","OBJECT_TYPE":"PAYLOAD","TLE_LINE2":"2 52615  53.2135  79.8300 0001940  69.0695  45.6654 15.08857875  1304","COUNTRY_CODE":"US","MEAN_MOTION_DDOT":"0.0000000000000","CENTER_NAME":"EARTH"},{"APOAPSIS":"540.663","RA_OF_ASC_NODE":"64.8374","ELEMENT_SET_NO":"999","CLASSIFICATION_TYPE":"U","LAUNCH_DATE":"2022-05-14","TIME_SYSTEM":"UTC","PERIAPSIS":"538.836","ARG_OF_PERICENTER":"68.3633","PERIOD":"95.438","MEAN_MOTION_DOT":"-0.00000610","MEAN_ELEMENT_THEORY":"SGP4","GP_ID":"209230154","REV_AT_EPOCH":"130","FILE":"3525638","MEAN_MOTION":"15.08838680","OBJECT_TYPE":"PAYLOAD","OBJECT_NAME":"STARLINK-4015","EPHEMERIS_TYPE":"0","TLE_LINE2":"2 52616  53.2151  64.8374 0001321  68.3633 348.7223 15.08838680  1307","MEAN_MOTION_DDOT":"0.0000000000000","COUNTRY_CODE":"US","CENTER_NAME":"EARTH","ECCENTRICITY":"0.00013210","DECAY_DATE":null,"TLE_LINE1":"1 52616U 22052U   22211.91667824 -.00000610  00000-0 -20224-4 0  9995","OBJECT_ID":"2022-052U","EPOCH":"2022-07-30T22:00:00.999936","BSTAR":"-0.00002022400000","NORAD_CAT_ID":"52616","SEMIMAJOR_AXIS":"6917.884","REF_FRAME":"TEME","INCLINATION":"53.2151","MEAN_ANOMALY":"348.7223","SITE":"AFETR","RCS_SIZE":"LARGE"},{"TLE_LINE1":"1 52617U 22052V   22211.91667824 -.01077787  00000-0 -65271-1 0  9994","ECCENTRICITY":"0.00014260","DECAY_DATE":null,"SEMIMAJOR_AXIS":"6905.323","NORAD_CAT_ID":"52617","EPOCH":"2022-07-30T22:00:00.999936","BSTAR":"-0.06527100000000","OBJECT_ID":"2022-052V","REF_FRAME":"TEME","MEAN_ANOMALY":"37.4700","INCLINATION":"53.2175","RCS_SIZE":"LARGE","SITE":"AFETR","RA_OF_ASC_NODE":"64.1283","APOAPSIS":"528.172","LAUNCH_DATE":"2022-05-14","CLASSIFICATION_TYPE":"U","ELEMENT_SET_NO":"999","ARG_OF_PERICENTER":"69.6985","PERIAPSIS":"526.203","TIME_SYSTEM":"UTC","GP_ID":"209229899","REV_AT_EPOCH":"130","FILE":"3525638","MEAN_MOTION":"15.12957789","PERIOD":"95.178","MEAN_MOTION_DOT":"-0.01077787","MEAN_ELEMENT_THEORY":"SGP4","EPHEMERIS_TYPE":"0","OBJECT_NAME":"STARLINK-3996","OBJECT_TYPE":"PAYLOAD","TLE_LINE2":"2 52617  53.2175  64.1283 0001426  69.6985  37.4700 15.12957789  1305","MEAN_MOTION_DDOT":"0.0000000000000","COUNTRY_CODE":"US","CENTER_NAME":"EARTH"},{"OBJECT_ID":"2022-052W","EPOCH":"2022-07-30T22:00:00.999936","BSTAR":"-0.00009096000000","NORAD_CAT_ID":"52618","SEMIMAJOR_AXIS":"6917.896","ECCENTRICITY":"0.00016030","DECAY_DATE":null,"TLE_LINE1":"1 52618U 22052W   22211.91667824 -.00001735  00000-0 -90960-4 0  9990","SITE":"AFETR","RCS_SIZE":"LARGE","INCLINATION":"53.2164","MEAN_ANOMALY":"356.2284","REF_FRAME":"TEME","MEAN_MOTION_DOT":"-0.00001735","PERIOD":"95.438","MEAN_ELEMENT_THEORY":"SGP4","GP_ID":"209230027","FILE":"3525638","MEAN_MOTION":"15.08834995","REV_AT_EPOCH":"130","TIME_SYSTEM":"UTC","PERIAPSIS":"538.652","ARG_OF_PERICENTER":"81.0088","ELEMENT_SET_NO":"999","CLASSIFICATION_TYPE":"U","LAUNCH_DATE":"2022-05-14","APOAPSIS":"540.870","RA_OF_ASC_NODE":"64.8370","CENTER_NAME":"EARTH","MEAN_MOTION_DDOT":"0.0000000000000","COUNTRY_CODE":"US","TLE_LINE2":"2 52618  53.2164  64.8370 0001603  81.0088 356.2284 15.08834995  1304","OBJECT_TYPE":"PAYLOAD","OBJECT_NAME":"STARLINK-3983","EPHEMERIS_TYPE":"0"}];
